BANDWAGON-2 OBJECT D    
1 62380U 24247D   26068.52261193  .00011259  00000+0  40119-3 0  9994
2 62380  44.9954 115.6710 0003488 351.1453   8.9368 15.29076102 67732
STARLINK-34050          
1 64331U 25124Q   26068.45214715  .00022104  00000+0  81013-3 0  9996
2 64331  42.9993 123.0924 0000671 244.0897 115.9885 15.27588946 42800
